{
  "norad_id": 55049,
  "name": "ICEYE-X21",
  "history": [
    {
      "epoch": "2026-03-28T22:26:41.515008Z",
      "apogee_km": 331.2127655164768,
      "perigee_km": 328.4812744235451,
      "latitude_deg": -3.9733306870450065e-05,
      "longitude_deg": 4.988212081939535,
      "height_km": 331.70770021495036,
      "semi_major_axis_km": 6707.98401997001,
      "eccentricity": 0.0002036,
      "inclination_deg": 97.3338,
      "raan_deg": 168.0097,
      "arg_perigee_deg": 344.0911,
      "mean_anomaly_deg": 16.0292,
      "mean_motion_rev_day": 15.80209735
    },
    {
      "epoch": "2026-03-31T14:15:49.321440Z",
      "apogee_km": 329.6789965121907,
      "perigee_km": 326.4517036932275,
      "latitude_deg": 2.6362973750071162e-05,
      "longitude_deg": 127.91743286856435,
      "height_km": 329.9709625528272,
      "semi_major_axis_km": 6706.202350102709,
      "eccentricity": 0.00024062,
      "inclination_deg": 97.3346,
      "raan_deg": 170.8424,
      "arg_perigee_deg": 321.9424,
      "mean_anomaly_deg": 38.1674,
      "mean_motion_rev_day": 15.8083951
    },
    {
      "epoch": "2026-04-02T19:25:39.308736Z",
      "apogee_km": 328.21270548410575,
      "perigee_km": 324.92471780311644,
      "latitude_deg": -5.293212479622909e-05,
      "longitude_deg": 50.63570179440677,
      "height_km": 328.6441905051216,
      "semi_major_axis_km": 6704.705711643611,
      "eccentricity": 0.0002452,
      "inclination_deg": 97.3328,
      "raan_deg": 173.2023,
      "arg_perigee_deg": 312.0888,
      "mean_anomaly_deg": 48.0171,
      "mean_motion_rev_day": 15.81368857
    },
    {
      "epoch": "2026-04-03T03:01:14.787840Z",
      "apogee_km": 327.86115740496734,
      "perigee_km": 324.6350073033391,
      "latitude_deg": -4.8802085908154916e-05,
      "longitude_deg": -63.23696938724651,
      "height_km": 328.4355727207468,
      "semi_major_axis_km": 6704.385082354153,
      "eccentricity": 0.0002406,
      "inclination_deg": 97.3327,
      "raan_deg": 173.5393,
      "arg_perigee_deg": 307.8693,
      "mean_anomaly_deg": 52.2357,
      "mean_motion_rev_day": 15.81482299
    },
    {
      "epoch": "2026-04-03T19:43:27.331968Z",
      "apogee_km": 327.43377205050456,
      "perigee_km": 323.9464411896406,
      "latitude_deg": -3.0322069009780393e-06,
      "longitude_deg": 46.26726977176751,
      "height_km": 327.8521431905177,
      "semi_major_axis_km": 6703.827106620072,
      "eccentricity": 0.0002601,
      "inclination_deg": 97.3328,
      "raan_deg": 174.2818,
      "arg_perigee_deg": 305.6462,
      "mean_anomaly_deg": 54.4564,
      "mean_motion_rev_day": 15.81679749
    },
    {
      "epoch": "2026-04-04T06:21:09.197856Z",
      "apogee_km": 327.0788348227734,
      "perigee_km": 323.4899570758089,
      "latitude_deg": 5.728629176307359e-05,
      "longitude_deg": -113.1215680217848,
      "height_km": 327.4645795664106,
      "semi_major_axis_km": 6703.421395949291,
      "eccentricity": 0.00026769,
      "inclination_deg": 97.333,
      "raan_deg": 174.7539,
      "arg_perigee_deg": 303.8039,
      "mean_anomaly_deg": 56.2975,
      "mean_motion_rev_day": 15.81823343
    },
    {
      "epoch": "2026-04-05T14:13:58.079712Z",
      "apogee_km": 326.29185900783614,
      "perigee_km": 322.486164738295,
      "latitude_deg": 2.38150276317657e-05,
      "longitude_deg": 128.78328496293312,
      "height_km": 326.8022806472034,
      "semi_major_axis_km": 6702.526011873066,
      "eccentricity": 0.0002839,
      "inclination_deg": 97.3327,
      "raan_deg": 176.1717,
      "arg_perigee_deg": 293.7439,
      "mean_anomaly_deg": 66.3532,
      "mean_motion_rev_day": 15.82140325
    },
    {
      "epoch": "2026-04-05T20:18:16.274880Z",
      "apogee_km": 326.15459736889716,
      "perigee_km": 322.3060980378468,
      "latitude_deg": 6.601983226367907e-05,
      "longitude_deg": 37.72750919392734,
      "height_km": 326.6922921800043,
      "semi_major_axis_km": 6702.367347703372,
      "eccentricity": 0.0002871,
      "inclination_deg": 97.3322,
      "raan_deg": 176.4411,
      "arg_perigee_deg": 291.8985,
      "mean_anomaly_deg": 68.1979,
      "mean_motion_rev_day": 15.82196506
    },
    {
      "epoch": "2026-04-06T05:24:42.152832Z",
      "apogee_km": 325.8846835603563,
      "perigee_km": 322.10159918075806,
      "latitude_deg": 5.11939835465771e-05,
      "longitude_deg": -98.84913347834944,
      "height_km": 326.56367016108504,
      "semi_major_axis_km": 6702.130141370557,
      "eccentricity": 0.00028223,
      "inclination_deg": 97.332,
      "raan_deg": 176.8463,
      "arg_perigee_deg": 288.7893,
      "mean_anomaly_deg": 71.307,
      "mean_motion_rev_day": 15.82280504
    },
    {
      "epoch": "2026-04-07T13:16:59.501280Z",
      "apogee_km": 325.0942102995723,
      "perigee_km": 321.31505569905767,
      "latitude_deg": 1.6507606711117316e-05,
      "longitude_deg": 143.18786680871332,
      "height_km": 325.9398170645072,
      "semi_major_axis_km": 6701.341632999314,
      "eccentricity": 0.00028197,
      "inclination_deg": 97.3309,
      "raan_deg": 178.2645,
      "arg_perigee_deg": 283.6248,
      "mean_anomaly_deg": 76.4707,
      "mean_motion_rev_day": 15.82559779
    },
    {
      "epoch": "2026-04-07T20:52:14.337696Z",
      "apogee_km": 324.81909044076565,
      "perigee_km": 320.98073649673097,
      "latitude_deg": 5.446925736424031e-05,
      "longitude_deg": 29.401636939207528,
      "height_km": 325.6665275069021,
      "semi_major_axis_km": 6701.036913468748,
      "eccentricity": 0.0002864,
      "inclination_deg": 97.3308,
      "raan_deg": 178.6017,
      "arg_perigee_deg": 282.4545,
      "mean_anomaly_deg": 77.6404,
      "mean_motion_rev_day": 15.82667727
    }
  ]
}